[{"OBJECT_NAME":"STARLINK-6066","OBJECT_ID":"2023-046N","EPOCH":"2026-03-09T22:56:43.180512","MEAN_MOTION":15.02528705,"ECCENTRICITY":0.00014316,"INCLINATION":43.0053,"RA_OF_ASC_NODE":157.3678,"ARG_OF_PERICENTER":265.4181,"MEAN_ANOMALY":94.6498,"EPHEMERIS_TYPE":0,"CLASSIFICATION_TYPE":"U","NORAD_CAT_ID":56105,"ELEMENT_SET_NO":999,"REV_AT_EPOCH":16210,"BSTAR":9.897116e-6,"MEAN_MOTION_DOT":-7.0e-7,"MEAN_MOTION_DDOT":0},{"OBJECT_NAME":"PICO-02A021","OBJECT_ID":"2024-149BY","EPOCH":"2026-03-09T03:41:37.126752","MEAN_MOTION":15.02201963,"ECCENTRICITY":0.00041954,"INCLINATION":97.6823,"RA_OF_ASC_NODE":147.908,"ARG_OF_PERICENTER":9.5557,"MEAN_ANOMALY":350.5747,"EPHEMERIS_TYPE":0,"CLASSIFICATION_TYPE":"U","NORAD_CAT_ID":60538,"ELEMENT_SET_NO":999,"REV_AT_EPOCH":8471,"BSTAR":0.00064833457,"MEAN_MOTION_DOT":8.488e-5,"MEAN_MOTION_DDOT":0}]
